{"type": "FeatureCollection", "features": [{"type": "Feature", "properties": {"source": "Natural Earth 10m land", "region": "Monterey Bay to SF Bay"}, "geometry": {"type": "MultiPolygon", "coordinates": [[[[-121.506678, 36.00326], [-121.522569, 36.010071], [-121.541084, 36.015013], [-121.566739, 36.020117], [-121.582244, 36.036027], [-121.592661, 36.05057], [-121.594522, 36.064233], [-121.606444, 36.071505], [-121.618221, 36.084429], [-121.630155, 36.113057], [-121.642659, 36.12355], [-121.657759, 36.142647], [-121.677921, 36.162675], [-121.693576, 36.171656], [-121.70388, 36.182217], [-121.729139, 36.198145], [-121.753954, 36.211547], [-121.781441, 36.226326], [-121.798858, 36.23448], [-121.810367, 36.232397], [-121.824859, 36.239203], [-121.835601, 36.249172], [-121.840077, 36.259345], [-121.845418, 36.2724], [-121.852203, 36.279446], [-121.863189, 36.283189], [-121.873606, 36.290025], [-121.881012, 36.299506], [-121.899661, 36.3044], [-121.895629, 36.313929], [-121.897126, 36.327981], [-121.893724, 36.332058], [-121.893586, 36.338568], [-121.897856, 36.343868], [-121.901072, 36.35276], [-121.903645, 36.362116], [-121.905845, 36.371752], [-121.906127, 36.37714], [-121.904168, 36.384537], [-121.906123, 36.388478], [-121.908275, 36.396371], [-121.914432, 36.403036], [-121.917672, 36.415549], [-121.915329, 36.423194], [-121.918351, 36.430327], [-121.929012, 36.447786], [-121.930225, 36.454603], [-121.931507, 36.463031], [-121.93804, 36.468265], [-121.944699, 36.486152], [-121.946309, 36.491891], [-121.942481, 36.496705], [-121.943208, 36.502832], [-121.944237, 36.505695], [-121.94227, 36.511901], [-121.949575, 36.514218], [-121.95693, 36.517618], [-121.955363, 36.522728], [-121.948204, 36.523662], [-121.940065, 36.522816], [-121.927533, 36.523852], [-121.9283, 36.53138], [-121.929945, 36.537846], [-121.933124, 36.538475], [-121.935633, 36.544188], [-121.931269, 36.54721], [-121.932528, 36.555129], [-121.934617, 36.561225], [-121.940335, 36.558517], [-121.942799, 36.563146], [-121.946477, 36.564848], [-121.95089, 36.562909], [-121.953891, 36.559565], [-121.970075, 36.568854], [-121.978002, 36.574767], [-121.981115, 36.583717], [-121.973934, 36.584291], [-121.96722, 36.585213], [-121.966636, 36.592101], [-121.963867, 36.600501], [-121.959863, 36.611473], [-121.95638, 36.614104], [-121.950334, 36.609938], [-121.946644, 36.618007], [-121.942522, 36.626448], [-121.941531, 36.634434], [-121.937695, 36.639249], [-121.929526, 36.63804], [-121.921211, 36.633581], [-121.920549, 36.628898], [-121.913135, 36.624412], [-121.902154, 36.620752], [-121.895937, 36.612611], [-121.887421, 36.601994], [-121.878836, 36.602614], [-121.870004, 36.607212], [-121.853875, 36.619614], [-121.837929, 36.635612], [-121.827061, 36.6562], [-121.814258, 36.683238], [-121.809926, 36.718817], [-121.805359, 36.737739], [-121.792424, 36.730868], [-121.763743, 36.722073], [-121.761274, 36.730286], [-121.766442, 36.735208], [-121.770215, 36.739083], [-121.775112, 36.7375], [-121.783707, 36.737984], [-121.79019, 36.741781], [-121.794901, 36.746352], [-121.803205, 36.750459], [-121.798162, 36.779907], [-121.789812, 36.806199], [-121.804246, 36.836018], [-121.859934, 36.927476], [-121.887115, 36.954901], [-121.905601, 36.969126], [-121.937243, 36.978307], [-121.952767, 36.971008], [-121.963566, 36.95949], [-121.974235, 36.955199], [-121.993967, 36.959866], [-122.006701, 36.962378], [-122.02121, 36.962668], [-122.025156, 36.959653], [-122.024075, 36.95607], [-122.025189, 36.950974], [-122.034824, 36.953213], [-122.046794, 36.948157], [-122.060868, 36.948813], [-122.080901, 36.951463], [-122.106004, 36.955755], [-122.120843, 36.963256], [-122.134991, 36.965726], [-122.142238, 36.975251], [-122.153643, 36.977075], [-122.177587, 36.995105], [-122.207916, 37.019273], [-122.222118, 37.024295], [-122.227946, 37.04006], [-122.253802, 37.059123], [-122.266042, 37.076456], [-122.28103, 37.096583], [-122.290062, 37.104236], [-122.297658, 37.111227], [-122.308354, 37.116675], [-122.31873, 37.115617], [-122.327656, 37.112808], [-122.33929, 37.118582], [-122.337853, 37.134902], [-122.359528, 37.150485], [-122.361039, 37.162356], [-122.369353, 37.17402], [-122.383412, 37.182271], [-122.396109, 37.18186], [-122.404457, 37.194526], [-122.407868, 37.216117], [-122.410704, 37.226871], [-122.416499, 37.23392], [-122.418363, 37.25231], [-122.41015, 37.268845], [-122.407412, 37.294984], [-122.402522, 37.340504], [-122.400338, 37.359741], [-122.408736, 37.364172], [-122.411569, 37.374931], [-122.429194, 37.407271], [-122.444446, 37.437519], [-122.44916, 37.476655], [-122.463246, 37.496649], [-122.479268, 37.502783], [-122.486096, 37.502556], [-122.494212, 37.500839], [-122.495285, 37.495371], [-122.499263, 37.493066], [-122.501074, 37.501329], [-122.512025, 37.510003], [-122.520472, 37.531421], [-122.517565, 37.545266], [-122.514759, 37.560893], [-122.520028, 37.574125], [-122.51904, 37.589714], [-122.522424, 37.593217], [-122.517468, 37.594473], [-122.513089, 37.597844], [-122.507597, 37.597698], [-122.503233, 37.601463], [-122.501698, 37.606944], [-122.495947, 37.627374], [-122.49474, 37.665229], [-122.501874, 37.703488], [-122.508493, 37.724944], [-122.51361, 37.752261], [-122.515172, 37.781126], [-122.505874, 37.786456], [-122.49767, 37.787102], [-122.48593, 37.790811], [-122.476449, 37.810675], [-122.463359, 37.805304], [-122.418757, 37.811143], [-122.408637, 37.810392], [-122.398195, 37.803495], [-122.387929, 37.790961], [-122.387104, 37.778745], [-122.381532, 37.773643], [-122.382858, 37.763829], [-122.379245, 37.755986], [-122.374317, 37.749271], [-122.366494, 37.739755], [-122.354544, 37.730008], [-122.36246, 37.714916], [-122.37629, 37.716641], [-122.379472, 37.707492], [-122.392455, 37.71033], [-122.387974, 37.677188], [-122.380158, 37.67671], [-122.381033, 37.666919], [-122.374911, 37.655163], [-122.38136, 37.647353], [-122.384389, 37.636664], [-122.38373, 37.63146], [-122.363722, 37.627251], [-122.354142, 37.613507], [-122.35934, 37.608471], [-122.371166, 37.612945], [-122.374109, 37.604187], [-122.362287, 37.599708], [-122.35852, 37.592805], [-122.330392, 37.589405], [-122.31677, 37.589845], [-122.31579, 37.58393], [-122.299069, 37.576898], [-122.283269, 37.574699], [-122.257924, 37.571519], [-122.250966, 37.568061], [-122.245348, 37.553193], [-122.239576, 37.546887], [-122.23054, 37.544827], [-122.210292, 37.539864], [-122.199298, 37.534962], [-122.198894, 37.526781], [-122.207346, 37.517483], [-122.193, 37.515357], [-122.183071, 37.507554], [-122.171285, 37.50359], [-122.158681, 37.503363], [-122.147939, 37.496649], [-122.134145, 37.497789], [-122.12267, 37.484931], [-122.111928, 37.467475], [-122.100168, 37.455064], [-122.080881, 37.448717], [-122.058909, 37.447414], [-122.038645, 37.451402], [-122.03214, 37.463364], [-122.040761, 37.467922], [-122.048329, 37.468736], [-122.052235, 37.471381], [-122.051869, 37.477444], [-122.050526, 37.48428], [-122.051747, 37.489203], [-122.057769, 37.497545], [-122.062367, 37.501695], [-122.069081, 37.503567], [-122.093332, 37.503567], [-122.109039, 37.517971], [-122.11655, 37.542562], [-122.14631, 37.578968], [-122.152218, 37.616096], [-122.162779, 37.664434], [-122.185243, 37.690784], [-122.191863, 37.700313], [-122.206726, 37.710669], [-122.21436, 37.699068], [-122.251766, 37.722777], [-122.26235, 37.743003], [-122.248933, 37.748301], [-122.212452, 37.743484], [-122.217293, 37.758486], [-122.22185, 37.759717], [-122.226318, 37.755397], [-122.239336, 37.755325], [-122.271551, 37.762847], [-122.283512, 37.763329], [-122.289854, 37.767131], [-122.299881, 37.772246], [-122.297371, 37.779759], [-122.307557, 37.780865], [-122.309851, 37.776218], [-122.331509, 37.782388], [-122.328616, 37.796489], [-122.3247, 37.801083], [-122.325009, 37.803751], [-122.328422, 37.80446], [-122.339094, 37.803381], [-122.340657, 37.807116], [-122.334728, 37.811631], [-122.322361, 37.810942], [-122.316571, 37.81709], [-122.32836, 37.821026], [-122.319691, 37.825093], [-122.301385, 37.826239], [-122.295502, 37.831292], [-122.297888, 37.839311], [-122.303863, 37.862902], [-122.316024, 37.860891], [-122.317747, 37.867865], [-122.308307, 37.870329], [-122.313902, 37.885829], [-122.32876, 37.908058], [-122.347832, 37.906372], [-122.36483, 37.903659], [-122.391088, 37.907675], [-122.387628, 37.920218], [-122.396259, 37.928049], [-122.410173, 37.931922], [-122.421316, 37.948316], [-122.429698, 37.964262], [-122.413807, 37.962083], [-122.397725, 37.956117], [-122.395032, 37.970267], [-122.368796, 37.980316], [-122.359566, 37.987649], [-122.369976, 38.003556], [-122.366306, 38.012336], [-122.346303, 38.006049], [-122.336008, 38.003811], [-122.322499, 38.005194], [-122.31677, 38.010136], [-122.299041, 38.011198], [-122.276973, 38.024951], [-122.27557, 38.039101], [-122.264236, 38.045952], [-122.249745, 38.055365], [-122.22704, 38.058417], [-122.20363, 38.053378], [-122.18617, 38.047976], [-122.168553, 38.028043], [-122.147939, 38.023627], [-122.124379, 38.029202], [-122.081837, 38.047896], [-122.053255, 38.053075], [-122.00399, 38.056136], [-121.939009, 38.044544], [-121.888004, 38.041089], [-121.878102, 38.034346], [-121.837123, 38.023064], [-121.779134, 38.015461], [-121.751082, 38.019436], [-121.722971, 38.011135], [-121.702056, 38.009223], [-121.690044, 38.009119], [-121.681443, 38.017453], [-121.694825, 38.024678], [-121.710548, 38.022106], [-121.723081, 38.025563], [-121.720606, 38.032117], [-121.704906, 38.035232], [-121.694895, 38.043402], [-121.685536, 38.044745], [-121.681508, 38.048326], [-121.678375, 38.056952], [-121.67634, 38.067084], [-121.675608, 38.075507], [-121.671132, 38.083889], [-121.660553, 38.086859], [-121.637685, 38.08633], [-121.624518, 38.089286], [-121.624058, 38.094702], [-121.617096, 38.098619], [-121.606679, 38.099351], [-121.596262, 38.094387], [-121.582054, 38.092], [-121.580326, 38.083398], [-121.576519, 38.074307], [-121.582469, 38.068751], [-121.584967, 38.062743], [-121.599232, 38.059134], [-121.609607, 38.061029], [-121.620623, 38.061825], [-121.627713, 38.050833], [-121.632239, 38.044229], [-121.622988, 38.036362], [-121.61276, 38.021491], [-121.605064, 38.017906], [-121.598368, 38.021862], [-121.584243, 38.02871], [-121.582478, 38.035782], [-121.580205, 38.047191], [-121.579258, 38.057484], [-121.578087, 38.062378], [-121.569305, 38.065844], [-121.555922, 38.057537], [-121.547581, 38.055045], [-121.537801, 38.050966], [-121.526405, 38.040979], [-121.512642, 38.04024], [-121.500885, 38.031073], [-121.5, 38.0307102477734], [-121.5, 35.99485551024075], [-121.506678, 36.00326]]], [[[-121.503896, 38.04975], [-121.513236, 38.054822], [-121.526271, 38.054497], [-121.529257, 38.060368], [-121.535607, 38.064533], [-121.542424, 38.063282], [-121.548642, 38.064206], [-121.565125, 38.081083], [-121.571278, 38.097139], [-121.586497, 38.102362], [-121.604075, 38.10578], [-121.627187, 38.105618], [-121.631907, 38.103258], [-121.639475, 38.094468], [-121.644521, 38.092515], [-121.651967, 38.094306], [-121.658559, 38.097602], [-121.664947, 38.099189], [-121.680282, 38.092691], [-121.686106, 38.082668], [-121.688588, 38.0751], [-121.68928, 38.061591], [-121.69933, 38.050849], [-121.720589, 38.040282], [-121.742063, 38.029449], [-121.767475, 38.030388], [-121.778709, 38.036019], [-121.785222, 38.043399], [-121.784246, 38.052067], [-121.77985, 38.061375], [-121.769174, 38.068695], [-121.759025, 38.072215], [-121.746816, 38.075995], [-121.73644, 38.078843], [-121.716668, 38.092807], [-121.702992, 38.105618], [-121.687787, 38.123831], [-121.682602, 38.147193], [-121.689484, 38.147547], [-121.704885, 38.122293], [-121.721447, 38.108346], [-121.746978, 38.087714], [-121.767445, 38.078843], [-121.80308, 38.062883], [-121.823968, 38.068799], [-121.846118, 38.072511], [-121.861836, 38.070453], [-121.86734, 38.064643], [-121.882527, 38.0569], [-121.89817, 38.053221], [-121.916725, 38.052707], [-121.928822, 38.058417], [-121.920969, 38.062445], [-121.916086, 38.066962], [-121.908315, 38.078843], [-121.954985, 38.07917], [-121.971269, 38.074918], [-121.989479, 38.082498], [-122.014955, 38.098511], [-121.985992, 38.110704], [-121.98942, 38.125198], [-122.000296, 38.137312], [-122.016207, 38.13955], [-122.038064, 38.136747], [-122.055165, 38.133734], [-122.065419, 38.127346], [-122.068955, 38.12178], [-122.065797, 38.113227], [-122.07549, 38.100508], [-122.093251, 38.084304], [-122.121083, 38.059882], [-122.126597, 38.050343], [-122.13029, 38.042142], [-122.158478, 38.043445], [-122.165931, 38.054547], [-122.184302, 38.064789], [-122.189628, 38.061382], [-122.195142, 38.061752], [-122.204934, 38.065233], [-122.223571, 38.065727], [-122.245208, 38.072086], [-122.260888, 38.069433], [-122.271459, 38.074509], [-122.281674, 38.086085], [-122.300677, 38.108196], [-122.39652, 38.153231], [-122.41063, 38.133846], [-122.434131, 38.123345], [-122.449308, 38.124469], [-122.45788, 38.117699], [-122.502317, 38.113521], [-122.487422, 38.104827], [-122.482488, 38.076881], [-122.494091, 38.050008], [-122.502725, 38.03188], [-122.505685, 38.023131], [-122.50605, 38.017172], [-122.493456, 38.012783], [-122.469746, 38.005427], [-122.454242, 37.997805], [-122.445336, 37.985123], [-122.45124, 37.980062], [-122.459542, 37.981407], [-122.469221, 37.982746], [-122.474356, 37.976122], [-122.492543, 37.969794], [-122.49356, 37.958564], [-122.483713, 37.948554], [-122.480346, 37.94182], [-122.491668, 37.935488], [-122.503593, 37.940495], [-122.504221, 37.934882], [-122.50344, 37.924812], [-122.476232, 37.915991], [-122.472553, 37.911246], [-122.47429, 37.905238], [-122.460064, 37.895437], [-122.449003, 37.893641], [-122.438801, 37.882083], [-122.44795, 37.873669], [-122.454733, 37.872361], [-122.459463, 37.871123], [-122.459009, 37.862485], [-122.46952, 37.867003], [-122.473341, 37.874445], [-122.47226, 37.879889], [-122.476052, 37.886792], [-122.490135, 37.89389], [-122.499029, 37.89359], [-122.496486, 37.884483], [-122.494742, 37.877513], [-122.49928, 37.872485], [-122.489309, 37.864131], [-122.478052, 37.859681], [-122.479767, 37.853133], [-122.47649, 37.843521], [-122.470391, 37.831832], [-122.477565, 37.825104], [-122.48784, 37.825303], [-122.502641, 37.820482], [-122.511797, 37.82449], [-122.522586, 37.82197], [-122.528426, 37.816372], [-122.537954, 37.82794], [-122.547904, 37.834623], [-122.56369, 37.848148], [-122.573699, 37.855908], [-122.588341, 37.86081], [-122.601304, 37.873228], [-122.620731, 37.877496], [-122.645199, 37.898816], [-122.672392, 37.906574], [-122.685973, 37.903959], [-122.696671, 37.899257], [-122.700383, 37.892101], [-122.713182, 37.900299], [-122.727738, 37.90304], [-122.734205, 37.920124], [-122.748641, 37.932601], [-122.765348, 37.937396], [-122.780244, 37.948131], [-122.795999, 37.97552], [-122.81055, 37.985194], [-122.821432, 37.99767], [-122.839397, 38.006349], [-122.906843, 38.031844], [-122.921112, 38.034871], [-122.932696, 38.049519], [-122.932123, 38.058806], [-122.920142, 38.065312], [-122.935414, 38.070746], [-122.941558, 38.064765], [-122.948476, 38.060736], [-122.947099, 38.054755], [-122.946889, 38.045315], [-122.942494, 38.041246], [-122.936086, 38.03077], [-122.949371, 38.029446], [-122.963377, 38.025315], [-122.97907, 38.014516], [-122.984027, 38.003231], [-122.98033, 37.998039], [-122.971765, 37.996142], [-122.962504, 37.992048], [-122.974229, 37.990277], [-122.98448, 37.992113], [-122.997547, 37.993842], [-123.017816, 37.993522], [-123.027453, 37.994489], [-123.021622, 38.000483], [-123.015998, 38.000695], [-122.990726, 38.048716], [-122.949648, 38.143991], [-122.950285, 38.164493], [-122.95551, 38.176272], [-122.964945, 38.182602], [-122.964788, 38.198598], [-122.973839, 38.208038], [-122.98305, 38.220129], [-122.99323, 38.229519], [-122.996297, 38.24273], [-122.985254, 38.237812], [-122.964816, 38.2177], [-122.92557, 38.175141], [-122.907277, 38.152344], [-122.89151, 38.130805], [-122.868764, 38.110256], [-122.843373, 38.091986], [-122.825673, 38.072089], [-122.832265, 38.095893], [-122.850432, 38.110698], [-122.888417, 38.154608], [-122.935536, 38.215481], [-122.943999, 38.219311], [-122.950655, 38.217295], [-122.954336, 38.231402], [-122.964571, 38.232364], [-122.968815, 38.237094], [-122.968518, 38.250873], [-122.974535, 38.266194], [-122.987116, 38.277723], [-123.00228, 38.294859], [-123.01013348073795, 38.3], [-121.5, 38.3], [-121.5, 38.048625073266415], [-121.503896, 38.04975]]], [[[-123.052887, 38.298], [-123.06244, 38.295903], [-123.06452581554385, 38.3], [-123.05255607675194, 38.3], [-123.052887, 38.298]]]]}}, {"type": "Feature", "properties": {"source": "Natural Earth 10m land", "region": "Monterey Bay to SF Bay"}, "geometry": {"type": "MultiPolygon", "coordinates": [[[[-123.003, 37.699978], [-123.001861, 37.701036], [-123.005686, 37.691352], [-123.005035, 37.693183], [-123.005442, 37.693752], [-123.006215, 37.691881], [-123.005564, 37.693752], [-123.007721, 37.69656], [-123.002349, 37.701565], [-123.003, 37.699978]]], [[[-122.36169, 37.813434], [-122.359678, 37.809497], [-122.363515, 37.807237], [-122.369807, 37.809455], [-122.371983, 37.816531], [-122.376239, 37.821824], [-122.379154, 37.829163], [-122.372828, 37.832799], [-122.367695, 37.831535], [-122.362783, 37.820545], [-122.369093, 37.816625], [-122.366704, 37.812414], [-122.36169, 37.813434]]], [[[-122.417859, 37.863069], [-122.419185, 37.853875], [-122.428456, 37.854397], [-122.436391, 37.852688], [-122.44282, 37.855373], [-122.44286, 37.855699], [-122.443349, 37.855902], [-122.444081, 37.864122], [-122.441558, 37.868476], [-122.43692, 37.86815], [-122.434571, 37.871091], [-122.425177, 37.871404], [-122.417859, 37.863069]]]]}}]}