{"type": "FeatureCollection", "properties": {"source": "TeleGeography submarinecablemap.com, clipped to California waters"}, "features": [{"type": "Feature", "properties": {"id": "e2a", "name": "E2A"}, "geometry": {"type": "MultiLineString", "coordinates": [[[-125.5, 35.06233759120147], [-125.11726924255787, 35.0]], [[-121.81553084206644, 35.0], [-121.0, 35.29119317238614]]]}}, {"type": "Feature", "properties": {"id": "orca", "name": "ORCA"}, "geometry": {"type": "LineString", "coordinates": [[-123.687, 38.96962000000024], [-124.64983746154178, 38.651811712711336], [-125.5, 38.34633827199913]]}}, {"type": "Feature", "properties": {"id": "juno", "name": "JUNO"}, "geometry": {"type": "MultiLineString", "coordinates": [[[-125.5, 35.37117974217694], [-123.54571641379333, 35.0]], [[-121.68629451675102, 35.0], [-121.0, 35.077957377861914]]]}}, {"type": "Feature", "properties": {"id": "bifrost", "name": "Bifrost"}, "geometry": {"type": "LineString", "coordinates": [[-122.84983873608158, 35.05222991093673], [-122.78632263365861, 35.0]]}}, {"type": "Feature", "properties": {"id": "bifrost", "name": "Bifrost"}, "geometry": {"type": "LineString", "coordinates": [[-121.0, 35.10927741251341], [-122.84983873608158, 35.05222991093673], [-125.5, 36.32717066784317]]}}, {"type": "Feature", "properties": {"id": "jupiter", "name": "JUPITER"}, "geometry": {"type": "LineString", "coordinates": [[-124.4914224985622, 35.0], [-125.5, 35.51131364305372]]}}, {"type": "Feature", "properties": {"id": "asia-america-gateway-aag-cable-system", "name": "Asia-America Gateway (AAG) Cable System"}, "geometry": {"type": "LineString", "coordinates": [[-121.98879918121975, 35.0], [-121.0, 35.31794626786225]]}}, {"type": "Feature", "properties": {"id": "chi", "name": "CHI"}, "geometry": {"type": "LineString", "coordinates": [[-121.68037261558841, 35.0], [-121.0, 35.29975839328149]]}}, {"type": "Feature", "properties": {"id": "pacific-crossing-1-pc-1", "name": "Pacific Crossing-1 (PC-1)"}, "geometry": {"type": "MultiLineString", "coordinates": [[[-125.5, 37.84738395665909], [-122.84983873608158, 35.602930322906126], [-121.0, 35.2028135206775]], [[-121.0, 35.171705644824115], [-122.84983873608158, 35.419780517080355], [-125.5, 36.688730138746955]]]}}, {"type": "Feature", "properties": {"id": "southern-cross-cable-network-sccn", "name": "Southern Cross Cable Network (SCCN)"}, "geometry": {"type": "LineString", "coordinates": [[-121.5028414717011, 35.0], [-121.0, 35.28152983079606]]}}, {"type": "Feature", "properties": {"id": "tata-tgn-pacific", "name": "Tata TGN-Pacific"}, "geometry": {"type": "LineString", "coordinates": [[-123.23632231534458, 35.0], [-123.29983841789374, 35.05222991093673], [-125.5, 38.57208200176965]]}}, {"type": "Feature", "properties": {"id": "unity", "name": "Unity"}, "geometry": {"type": "LineString", "coordinates": [[-124.04723196408258, 35.0], [-125.5, 35.770655542173806]]}}, {"type": "Feature", "properties": {"id": "pacific-light-cable-network-plcn", "name": "Pacific Light Cable Network (PLCN)"}, "geometry": {"type": "LineString", "coordinates": [[-124.98062152882147, 35.0], [-125.5, 35.2510031295071]]}}]}