{"type":"FeatureCollection","features":[{"type":"Feature","id":3532,"geometry":{"type":"Point","coordinates":[-122.416666666833,37.8166666670331]},"properties":{"OBJECTID":3532,"INDEX_NO":16300,"REGION_NO":16000,"PORT_NAME":"SAN FRANCISCO","COUNTRY":"US","LATITUDE":37.816667,"LONGITUDE":-122.416667,"HARBORSIZE":"L","HARBORTYPE":"CN","PORTOFENTR":"Y","PILOT_REQD":"Y","TUG_ASSIST":"Y","MAX_VESSEL":"L","source":"NGA World Port Index FeatureServer","source_url":"https://services9.arcgis.com/j1CY4yzWfwptbTWN/arcgis/rest/services/WorldPortIndex_WFL1/FeatureServer/0","retrieved_utc":"2026-08-02T17:12:00Z"}}]}